ONEWEB-0207             
1 48242U 21031AJ  25161.64728695  .00000017  00000+0  12167-4 0  9997
2 48242  87.9036   3.6039 0001848  79.9022 280.2316 13.14502234199484
ONEWEB-0208             
1 48243U 21031AK  25161.85740651  .00000267  00000+0  68668-3 0  9990
2 48243  87.9035   3.5768 0002001  89.1295 271.0064 13.14502791199520
ONEWEB-0200             
1 48244U 21031AL  25161.59257756 -.00000343  00000+0 -96012-3 0  9992
2 48244  87.9033   3.6214 0001947  87.9144 272.2209 13.14503130199413
ONEWEB-0217             
1 48245U 21031AM  25161.60842078 -.00000180  00000+0 -52085-3 0  9993
2 48245  87.9034   3.6027 0002081  91.5920 268.5448 13.14501819199369
ONEWEB-0211             
1 48767U 21045A   25161.51150274 -.00000002  00000+0 -40077-4 0  9999
2 48767  87.9044 333.2391 0001954 102.7425 257.3924 13.16080083195557
ONEWEB-0223             
1 48768U 21045B   25161.72926070 -.00000174  00000+0 -49557-3 0  9999
2 48768  87.9047 333.2342 0001974 108.7912 251.3433 13.15546523195561
ONEWEB-0230             
1 48769U 21045C   25161.92892050  .00000166  00000+0  40723-3 0  9997
2 48769  87.9029 333.2386 0001691  93.4559 266.6765 13.15548537195859
ONEWEB-0237             
1 48770U 21045D   25161.46148369  .00000132  00000+0  31744-3 0  9991
2 48770  87.9051 333.3065 0001820 104.5318 255.6014 13.15549772195512
